NAVSTAR 77 (USA 289)    
1 43873U 18109A   24010.77732225  .00000010  00000+0  00000+0 0  9995
2 43873  55.2384 127.2896 0028411 191.9344 338.7591  2.00572610 37207
